STARLINK-5442           
1 54784U 22175AC  26066.24675422  .00001730  00000+0  12678-3 0  9994
2 54784  53.2181  54.8456 0001426  90.0772 270.0384 15.08822933179552
STARLINK-5440           
1 54785U 22175AD  26066.18007178  .00000948  00000+0  77662-4 0  9990
2 54785  53.2205   0.2574 0001341  90.5762 269.5384 15.08837280180316
STARLINK-5441           
1 54787U 22175AF  26066.17683153 -.00000279  00000+0  54186-6 0  9990
2 54787  53.2174  55.1192 0001320  91.6025 268.5118 15.08839375179543
STARLINK-5399           
1 54788U 22175AG  26066.18742749  .00000608  00000+0  56314-4 0  9997
2 54788  53.2181  40.2244 0001287  90.6069 269.5071 15.08839201179754
STARLINK-5446           
1 54789U 22175AH  26066.12071867  .00000668  00000+0  60078-4 0  9996
2 54789  53.2194  25.4206 0001416  89.2145 270.9009 15.08837612179958
STARLINK-5445           
1 54790U 22175AJ  26066.31253629  .00001330  00000+0  10163-3 0  9993
2 54790  53.2183  39.5841 0001338  86.0221 274.0924 15.08846086179778
STARLINK-5425           
1 54791U 22175AK  26066.19481193  .00004217  00000+0  28301-3 0  9999
2 54791  53.2175  40.2656 0001759  96.5120 263.6072 15.08820474179753
STARLINK-5431           
1 54792U 22175AL  26066.23570152  .00000216  00000+0  31650-4 0  9996
2 54792  53.2173  54.7752 0001388  90.2741 269.8411 15.08840829179556
STARLINK-5433           
1 54793U 22175AM  26066.19573077 -.00000435  00000+0 -92296-5 0  9990
2 54793  53.2186  30.3284 0001217  89.9821 270.1310 15.08834717179895
STARLINK-5436           
1 54795U 22175AP  26066.31622281  .00001646  00000+0  12152-3 0  9992
2 54795  53.2190  39.6055 0001402  78.4010 281.7139 15.08833381179779
STARLINK-5415           
1 54796U 22175AQ  26066.30885095  .00002026  00000+0  14536-3 0  9997
2 54796  53.2178  39.5567 0001325  92.2443 267.8701 15.08843532179770
STARLINK-5435           
1 54797U 22175AR  26066.25508250 -.00001389  00000+0 -69219-4 0  9999
2 54797  53.2188  54.8929 0001216  90.7692 269.3440 15.08829963179557
STARLINK-5420           
1 54798U 22175AS  26066.30609118  .00002376  00000+0  16730-3 0  9995
2 54798  53.2172  29.5846 0001566  82.1427 277.9743 15.08846832179912
STARLINK-5421           
1 54799U 22175AT  26066.19204202  .00000987  00000+0  80123-4 0  9992
2 54799  53.2182  30.2962 0001314  94.2000 265.9143 15.08837440179897
STARLINK-5428           
1 54800U 22175AU  26066.31391642 -.00001673  00000+0 -87012-4 0  9993
2 54800  53.2179  44.5591 0001397 100.3446 259.7704 15.08841382179700
STARLINK-5429           
1 54801U 22175AV  26066.22831268  .00003733  00000+0  25239-3 0  9996
2 54801  53.2180  54.7283 0001282  86.1322 273.9817 15.08858162179551
