[{"OBJECT_NAME":"STARLINK-5442","OBJECT_ID":"2022-175AC","EPOCH":"2026-03-07T05:55:19.564608","MEAN_MOTION":15.08822933,"ECCENTRICITY":0.00014263,"INCLINATION":53.2181,"RA_OF_ASC_NODE":54.8456,"ARG_OF_PERICENTER":90.0772,"MEAN_ANOMALY":270.0384,"EPHEMERIS_TYPE":0,"CLASSIFICATION_TYPE":"U","NORAD_CAT_ID":54784,"ELEMENT_SET_NO":999,"REV_AT_EPOCH":17955,"BSTAR":0.00012678465,"MEAN_MOTION_DOT":1.73e-5,"MEAN_MOTION_DDOT":0},{"OBJECT_NAME":"STARLINK-5440","OBJECT_ID":"2022-175AD","EPOCH":"2026-03-07T04:19:18.201792","MEAN_MOTION":15.0883728,"ECCENTRICITY":0.00013416,"INCLINATION":53.2205,"RA_OF_ASC_NODE":0.2574,"ARG_OF_PERICENTER":90.5762,"MEAN_ANOMALY":269.5384,"EPHEMERIS_TYPE":0,"CLASSIFICATION_TYPE":"U","NORAD_CAT_ID":54785,"ELEMENT_SET_NO":999,"REV_AT_EPOCH":18031,"BSTAR":7.7661871e-5,"MEAN_MOTION_DOT":9.48e-6,"MEAN_MOTION_DDOT":0},{"OBJECT_NAME":"STARLINK-5441","OBJECT_ID":"2022-175AF","EPOCH":"2026-03-07T04:14:38.244192","MEAN_MOTION":15.08839375,"ECCENTRICITY":0.00013201,"INCLINATION":53.2174,"RA_OF_ASC_NODE":55.1192,"ARG_OF_PERICENTER":91.6025,"MEAN_ANOMALY":268.5118,"EPHEMERIS_TYPE":0,"CLASSIFICATION_TYPE":"U","NORAD_CAT_ID":54787,"ELEMENT_SET_NO":999,"REV_AT_EPOCH":17954,"BSTAR":5.41856e-7,"MEAN_MOTION_DOT":-2.79e-6,"MEAN_MOTION_DDOT":0},{"OBJECT_NAME":"STARLINK-5399","OBJECT_ID":"2022-175AG","EPOCH":"2026-03-07T04:29:53.735136","MEAN_MOTION":15.08839201,"ECCENTRICITY":0.00012874,"INCLINATION":53.2181,"RA_OF_ASC_NODE":40.2244,"ARG_OF_PERICENTER":90.6069,"MEAN_ANOMALY":269.5071,"EPHEMERIS_TYPE":0,"CLASSIFICATION_TYPE":"U","NORAD_CAT_ID":54788,"ELEMENT_SET_NO":999,"REV_AT_EPOCH":17975,"BSTAR":5.6313743e-5,"MEAN_MOTION_DOT":6.08e-6,"MEAN_MOTION_DDOT":0},{"OBJECT_NAME":"STARLINK-5446","OBJECT_ID":"2022-175AH","EPOCH":"2026-03-07T02:53:50.093088","MEAN_MOTION":15.08837612,"ECCENTRICITY":0.0001416,"INCLINATION":53.2194,"RA_OF_ASC_NODE":25.4206,"ARG_OF_PERICENTER":89.2145,"MEAN_ANOMALY":270.9009,"EPHEMERIS_TYPE":0,"CLASSIFICATION_TYPE":"U","NORAD_CAT_ID":54789,"ELEMENT_SET_NO":999,"REV_AT_EPOCH":17995,"BSTAR":6.0077697e-5,"MEAN_MOTION_DOT":6.68e-6,"MEAN_MOTION_DDOT":0},{"OBJECT_NAME":"STARLINK-5445","OBJECT_ID":"2022-175AJ","EPOCH":"2026-03-07T07:30:03.135456","MEAN_MOTION":15.08846086,"ECCENTRICITY":0.00013387,"INCLINATION":53.2183,"RA_OF_ASC_NODE":39.5841,"ARG_OF_PERICENTER":86.0221,"MEAN_ANOMALY":274.0924,"EPHEMERIS_TYPE":0,"CLASSIFICATION_TYPE":"U","NORAD_CAT_ID":54790,"ELEMENT_SET_NO":999,"REV_AT_EPOCH":17977,"BSTAR":0.00010163217,"MEAN_MOTION_DOT":1.33e-5,"MEAN_MOTION_DDOT":0},{"OBJECT_NAME":"STARLINK-5425","OBJECT_ID":"2022-175AK","EPOCH":"2026-03-07T04:40:31.750752","MEAN_MOTION":15.08820474,"ECCENTRICITY":0.00017591,"INCLINATION":53.2175,"RA_OF_ASC_NODE":40.2656,"ARG_OF_PERICENTER":96.512,"MEAN_ANOMALY":263.6072,"EPHEMERIS_TYPE":0,"CLASSIFICATION_TYPE":"U","NORAD_CAT_ID":54791,"ELEMENT_SET_NO":999,"REV_AT_EPOCH":17975,"BSTAR":0.00028300748,"MEAN_MOTION_DOT":4.217e-5,"MEAN_MOTION_DDOT":0},{"OBJECT_NAME":"STARLINK-5431","OBJECT_ID":"2022-175AL","EPOCH":"2026-03-07T05:39:24.611328","MEAN_MOTION":15.08840829,"ECCENTRICITY":0.00013887,"INCLINATION":53.2173,"RA_OF_ASC_NODE":54.7752,"ARG_OF_PERICENTER":90.2741,"MEAN_ANOMALY":269.8411,"EPHEMERIS_TYPE":0,"CLASSIFICATION_TYPE":"U","NORAD_CAT_ID":54792,"ELEMENT_SET_NO":999,"REV_AT_EPOCH":17955,"BSTAR":3.1649816e-5,"MEAN_MOTION_DOT":2.16e-6,"MEAN_MOTION_DDOT":0},{"OBJECT_NAME":"STARLINK-5433","OBJECT_ID":"2022-175AM","EPOCH":"2026-03-07T04:41:51.138528","MEAN_MOTION":15.08834717,"ECCENTRICITY":0.00012172,"INCLINATION":53.2186,"RA_OF_ASC_NODE":30.3284,"ARG_OF_PERICENTER":89.9821,"MEAN_ANOMALY":270.131,"EPHEMERIS_TYPE":0,"CLASSIFICATION_TYPE":"U","NORAD_CAT_ID":54793,"ELEMENT_SET_NO":999,"REV_AT_EPOCH":17989,"BSTAR":-9.229559e-6,"MEAN_MOTION_DOT":-4.35e-6,"MEAN_MOTION_DDOT":0},{"OBJECT_NAME":"STARLINK-5436","OBJECT_ID":"2022-175AP","EPOCH":"2026-03-07T07:35:21.650784","MEAN_MOTION":15.08833381,"ECCENTRICITY":0.00014025,"INCLINATION":53.219,"RA_OF_ASC_NODE":39.6055,"ARG_OF_PERICENTER":78.401,"MEAN_ANOMALY":281.7139,"EPHEMERIS_TYPE":0,"CLASSIFICATION_TYPE":"U","NORAD_CAT_ID":54795,"ELEMENT_SET_NO":999,"REV_AT_EPOCH":17977,"BSTAR":0.00012152484,"MEAN_MOTION_DOT":1.646e-5,"MEAN_MOTION_DDOT":0},{"OBJECT_NAME":"STARLINK-5415","OBJECT_ID":"2022-175AQ","EPOCH":"2026-03-07T07:24:44.722080","MEAN_MOTION":15.08843532,"ECCENTRICITY":0.00013251,"INCLINATION":53.2178,"RA_OF_ASC_NODE":39.5567,"ARG_OF_PERICENTER":92.2443,"MEAN_ANOMALY":267.8701,"EPHEMERIS_TYPE":0,"CLASSIFICATION_TYPE":"U","NORAD_CAT_ID":54796,"ELEMENT_SET_NO":999,"REV_AT_EPOCH":17977,"BSTAR":0.00014535779,"MEAN_MOTION_DOT":2.026e-5,"MEAN_MOTION_DDOT":0},{"OBJECT_NAME":"STARLINK-5435","OBJECT_ID":"2022-175AR","EPOCH":"2026-03-07T06:07:19.128000","MEAN_MOTION":15.08829963,"ECCENTRICITY":0.00012166,"INCLINATION":53.2188,"RA_OF_ASC_NODE":54.8929,"ARG_OF_PERICENTER":90.7692,"MEAN_ANOMALY":269.344,"EPHEMERIS_TYPE":0,"CLASSIFICATION_TYPE":"U","NORAD_CAT_ID":54797,"ELEMENT_SET_NO":999,"REV_AT_EPOCH":17955,"BSTAR":-6.9218769e-5,"MEAN_MOTION_DOT":-1.389e-5,"MEAN_MOTION_DDOT":0},{"OBJECT_NAME":"STARLINK-5420","OBJECT_ID":"2022-175AS","EPOCH":"2026-03-07T07:20:46.277952","MEAN_MOTION":15.08846832,"ECCENTRICITY":0.00015663,"INCLINATION":53.2172,"RA_OF_ASC_NODE":29.5846,"ARG_OF_PERICENTER":82.1427,"MEAN_ANOMALY":277.9743,"EPHEMERIS_TYPE":0,"CLASSIFICATION_TYPE":"U","NORAD_CAT_ID":54798,"ELEMENT_SET_NO":999,"REV_AT_EPOCH":17991,"BSTAR":0.00016730433,"MEAN_MOTION_DOT":2.376e-5,"MEAN_MOTION_DDOT":0},{"OBJECT_NAME":"STARLINK-5421","OBJECT_ID":"2022-175AT","EPOCH":"2026-03-07T04:36:32.430528","MEAN_MOTION":15.0883744,"ECCENTRICITY":0.00013147,"INCLINATION":53.2182,"RA_OF_ASC_NODE":30.2962,"ARG_OF_PERICENTER":94.2,"MEAN_ANOMALY":265.9143,"EPHEMERIS_TYPE":0,"CLASSIFICATION_TYPE":"U","NORAD_CAT_ID":54799,"ELEMENT_SET_NO":999,"REV_AT_EPOCH":17989,"BSTAR":8.0122929e-5,"MEAN_MOTION_DOT":9.87e-6,"MEAN_MOTION_DDOT":0},{"OBJECT_NAME":"STARLINK-5428","OBJECT_ID":"2022-175AU","EPOCH":"2026-03-07T07:32:02.378688","MEAN_MOTION":15.08841382,"ECCENTRICITY":0.00013978,"INCLINATION":53.2179,"RA_OF_ASC_NODE":44.5591,"ARG_OF_PERICENTER":100.3446,"MEAN_ANOMALY":259.7704,"EPHEMERIS_TYPE":0,"CLASSIFICATION_TYPE":"U","NORAD_CAT_ID":54800,"ELEMENT_SET_NO":999,"REV_AT_EPOCH":17970,"BSTAR":-8.7012077e-5,"MEAN_MOTION_DOT":-1.673e-5,"MEAN_MOTION_DDOT":0},{"OBJECT_NAME":"STARLINK-5429","OBJECT_ID":"2022-175AV","EPOCH":"2026-03-07T05:28:46.215552","MEAN_MOTION":15.08858162,"ECCENTRICITY":0.00012822,"INCLINATION":53.218,"RA_OF_ASC_NODE":54.7283,"ARG_OF_PERICENTER":86.1322,"MEAN_ANOMALY":273.9817,"EPHEMERIS_TYPE":0,"CLASSIFICATION_TYPE":"U","NORAD_CAT_ID":54801,"ELEMENT_SET_NO":999,"REV_AT_EPOCH":17955,"BSTAR":0.00025239372,"MEAN_MOTION_DOT":3.733e-5,"MEAN_MOTION_DDOT":0}]
